[{"OBJECT_NAME":"NUSAT-33 (ALBANIA-2)","OBJECT_ID":"2023-001AQ","EPOCH":"2026-03-09T22:33:27.663264","MEAN_MOTION":15.26923259,"ECCENTRICITY":0.00076854,"INCLINATION":97.3178,"RA_OF_ASC_NODE":131.8399,"ARG_OF_PERICENTER":52.546,"MEAN_ANOMALY":307.6477,"EPHEMERIS_TYPE":0,"CLASSIFICATION_TYPE":"U","NORAD_CAT_ID":55047,"ELEMENT_SET_NO":999,"REV_AT_EPOCH":17716,"BSTAR":0.0004947656,"MEAN_MOTION_DOT":0.00013029,"MEAN_MOTION_DDOT":0},{"OBJECT_NAME":"STARLINK-32480","OBJECT_ID":"2024-216H","EPOCH":"2026-03-09T21:18:41.922144","MEAN_MOTION":15.27594973,"ECCENTRICITY":0.00015091,"INCLINATION":42.9995,"RA_OF_ASC_NODE":255.4018,"ARG_OF_PERICENTER":272.9262,"MEAN_ANOMALY":87.1417,"EPHEMERIS_TYPE":0,"CLASSIFICATION_TYPE":"U","NORAD_CAT_ID":62039,"ELEMENT_SET_NO":999,"REV_AT_EPOCH":7274,"BSTAR":0.0010294265,"MEAN_MOTION_DOT":0.00028187,"MEAN_MOTION_DDOT":0}]
